unique_id,Name,Address,City,State,is_closed
CZPUJBVW,EZMAN AUTO SALES,208 1/2 BROOKLYN ST,CARBONDALE,PA,N
ROHGXPVF,VILLA MARSEILLE MAINTENANCE,23511 ALISO CREEK RD,ALISO VIEJO,CA,N
YKOXCQNL,Green Benefits,677 120TH AVE NE STE 2A,BELLEVUE,WA,N
EFIKHGBZ,McDonald's,107 W MONROE ST,COZAD,NE,N
BPIKVCAY,Touch It Up,2109 W FAIRWAY DR,BRANDON,MS,N
CZGVHWMT,Strick Corp,70 WALNUT ST,WELLESLEY,MA,Y
BXYDROPC,Salute! Ristorante-Enoteca,23 N LEMON AVE,SARASOTA,FL,N
LAZBMYCH,Tybee Island Social Club,1311 BUTLER AVE,TYBEE ISLAND,GA,N
GMJFBZPN,PARADISE BAKERY & CAFE,1006 THE SHOPS AT MISSION VIEJO,MISSION VIEJO,CA,N
CJDZLHYQ,LINCOLNTON BAPTIST CHURCH,215 S PEACHTREE ST,LINCOLNTON,GA,N
MLEKXRWZ,BOULDER HOUSING PARTNERS,4800 BROADWAY ST,BOULDER,CO,N
AKCUDBQS,ROYAL WOOD WORKING,1791 SPORTSMAN LN NW,HUNTSVILLE,AL,N
KOIYGCJB,Chevron,2435 E GREENWAY PKWY,PHOENIX,AZ,N
BDMHSQIX,All-Lifts Inc,27-39 THATCHER ST,ALBANY,NY,N
ZAKTGMEX,SHECHINAH THE CHURCH,5405 N FIVE MILE RD,BOISE,ID,N
PTONUGJX,DEGROOT BUILDERS INC.,3213 NICOLET DR,GREEN BAY,WI,Y
FLSZHNXE,T&L Automotive,3508 VALLEY PIKE RD,CEDAR PARK,TX,Y
DXEPUFAH,Union M B Church,610 N HOMAN AVE,CHICAGO,IL,N
UHCSDJQP,K & S TREES & GARDENS,2255 THRUSHWOOD CIR,VICTORIA,MN,N
NTCIKLPX,Nordstrom West County,47 W COUNTY CTR,DES PERES,MO,N
XFSTVYDN,Northwest Painting Co.,12094 W PONTLER CT,BOISE,ID,N
PLDFBTIV,West Egg Catering,121 W HILLGROVE AVE,LA GRANGE,IL,N
RUIMPSJC,Jefferson National Bank,4300 S LABURNUM AVE,RICHMOND,VA,N
XIYZHJLO,Unique Boutique,304 E 22ND ST,FREMONT,NE,Y
PLUVATFR,Ocean Grove Tire & Auto,127 MACOMBER AVE,SWANSEA,MA,Y
GXFCJRYA,ACCEPTANCE LOAN CO.,1805 E THREE NOTCH ST STE 4,ANDALUSIA,AL,N
DLCHEMOG,EASTS DE PREMIER NEPHROLOGY & HYPERTENSION,4179 BAKER ST NE,COVINGTON,GA,Y
ISXBKHQG,California State of,2720 GATEWAY OAKS DR,SACRAMENTO,CA,N
KGOYVSME,HARTFORD CITY WIC,547 PARK ST,HARTFORD,CT,N
JCURNTMX,Grant Wood Area,1221 WARFORD ST,PERRY,IA,Y
KITMRJDH,MISSISSIPPI BLVD.,6745 WOLF RIVER PKWY,MEMPHIS,TN,N
CRDHQFPK,Petersburgh Self Storage,20039 STATE ROUTE 22,PETERSBURG,NY,N
ZQMOPREJ,Acf Property Management,2601 S INTERSTATE 35 E,LEWISVILLE,TX,N
CSAUWIGZ,Denis F. Tarrant NP,52 MEADOWS ST,PEARL RIVER,NY,N
JMBVIEGK,Ray Brien General Contractor,41 MARGARET HENRY RD,DANIELSON,CT,Y
OZVICTLJ,Bonk Creative,7719 KREFELD GLEN DR,CHARLOTTE,NC,N
WGCROQZP,Village Pantry,524 S TILLOTSON AVE,MUNCIE,IN,N
ZTHOQKRE,PHARMALINK FHI INC.,4309 EMPEROR BLVD STE 400,DURHAM,NC,N
UZXPNCBY,Divine Hair Designz,683 INGLESIDE RD,NORFOLK,VA,Y
XKZAGTBO,Roto Lith Printing,200 S RACHAL ST,SINTON,TX,N
TGUPZFER,Scottys Cleaners,3323 KENT AVE,METAIRIE,LA,N
CEMZJGKW,Pier Forty-Four Marina,13575 MINDANAO WAY,MARINA DEL REY,CA,N
MNHTYIKF,Stewart's Motor Sales,1195 MORTON AVE,CAMBRIDGE,OH,N
IXHPLTEV,ROSE PHOTOGRAPHY DESIGN LLC,201 RIVERPLACE UNIT 607,GREENVILLE,SC,N
QCMRJETG,Rem Ventures Inc,12720 GATEWAY DR S,TUKWILA,WA,N
IJAZTRSX,Mike's Weather Center,21 CROSS AVE,SAINT JOHNSBURY,VT,N
GNMKTVLB,Moe's Automotive Service,4037 W FOND DU LAC AVE,MILWAUKEE,WI,N
BIPTWNOV,Rivka Preis OTR,625 PROBASCO ST,CINCINNATI,OH,N
RXQOEHJZ,FORTEVA FINANCIAL SVC.,4445 W 77TH ST STE 220,MINNEAPOLIS,MN,Y
GUKDITRP,Snyder Equipment Inc,2946 LARIMER ST,DENVER,CO,N
HETKLNWM,Snack Queen Vending,1127 SW 21ST AVE,GAINESVILLE,FL,Y
NOWTZLAS,Anat B.,2052 CENTURY PARK E,CENTURY CITY,CA,N
YTGWVFAZ,iphotorodeo.com,180 OAK GROVE RD NW,ADAIRSVILLE,GA,Y
IFSTAYNO,Sprinkler World of Arizona Inc,2114 E INDIAN SCHOOL RD,PHOENIX,AZ,N
VABUXSTF,YFRC ( Youth and Family Resource Center ) students,160 W CERRITOS AVE BLDG 4,ANAHEIM,CA,Y
MJKOGBUE,David N Fields,328 POINT CLEAR DR,ADGER,AL,N
DQMJITGV,UNCLE Moe's Cafe,400 MARKET ST,HARRISBURG,PA,Y
ELTAOHYW,Cash's Automotive,924 ROCKBRIDGE RD,GLASGOW,VA,N
UJPOWGSD,YAP STEVEN M.D.,262 W END AVE APT 2C,NEW YORK,NY,Y
LFYRBITP,Panda Express,2121 MISSION ST,SANTA CRUZ,CA,Y
YHTIQERL,SOMERSET COUNCIL ON ALCOHOLISM,34 W MAIN ST STE 307,SOMERVILLE,NJ,N
AWHTNVSP,The Children's Center,35 LOWELL ST,METHUEN,MA,N
PBHMYSRX,Mclaughlin Plumbing & Heating Co,8649 W CHESTER PIKE,UPPER DARBY,PA,N
FRPODVCH,Hawthorn Suites by Wyndham Augusta,4049 JIMMIE DYESS PKWY,AUGUSTA,GA,N
HOXZKCQP,Social Meds,9201 WARREN PKWY STE 200,FRISCO,TX,N
TWRXYVQP,FARRELL'S ICE CREAM PARLOUR,1820 HIDDEN SPRINGS DR,EL CAJON,CA,Y
THWSNULG,Regal Nails,1275 N HERMITAGE RD,HERMITAGE,PA,Y
CDUYFQOK,EUROGENTEC NORTH AMERICA,11111 FLINTKOTE AVE,SAN DIEGO,CA,N
QIUHPZON,Furniture Components Corp,6261 PRESCOTT CT,CHINO,CA,N
HXNJESQP,ROGER'S CLASSIC,13254 W STAR DR,SHELBY TOWNSHIP,MI,N
ZVDOSBFM,Pilgrim United Church Of Christ,535 STOW ST,FOND DU LAC,WI,N
LZJARCNP,Azerbaljan House Inc,2612 E 14TH ST,BROOKLYN,NY,N
ICEJWMSP,HENDERSONVILLE CARPET CLEANERS,62 MANDALAY DR,HENDERSONVILLE,NC,N
MLFUTBHW,Cosmo Prof,1401 N CARBON ST STE A,MARION,IL,N
MEZRSGDU,CHAMPION CONCEPTS INC.,661 BEVILLE RD,SOUTH DAYTONA,FL,N
SAHFOYXZ,Ameristar Energy Llc,1325 MINK RD,PERKASIE,PA,N
SROLJVQZ,Burger King,2302 N 21ST ST,TAMPA,FL,Y
DOSKBXEU,Village Bowl,1314 S 8TH ST,ABERDEEN,SD,N
TMZDGUIC,Rapid DNA Testing in ATMORE,611 E LAUREL ST,ATMORE,AL,N
XQMFWLND,Home????,130 S 27TH ST,LINCOLN,NE,N
UXJMCDIR,Lynium LLC,2015 N FORBES BLVD STE 109,TUCSON,AZ,N
YQBLMFWE,Tender Love & Care Daycare,1025 N 5TH AVE,DURANT,OK,N
PGWFCKRQ,Patriot Income Tax Svc,3940 W CHICAGO AVE,CHICAGO,IL,N
QLCWXEJZ,PET BOUNDARIES INC.,5510 OLNEY LAYTONSVILLE RD,OLNEY,MD,Y
HUYPFLER,ROMERO IRMA E MD,844 N THORNTON AVE,ORLANDO,FL,N
JZILCGUO,Shirtails,4944 STATE ROUTE 261,NEWBURGH,IN,N
WFVQGERP,Mexican Restaurant,140 PARK RD,WEST HARTFORD,CT,Y
LEUNJZIY,Cardtronics,529 MONROE AVE,ROCHESTER,NY,Y
VUIHNXKG,Signature Design,1302 CARPENTER AVE,IRON MOUNTAIN,MI,N
FXIKDYPE,Stokely Group,4387 LACLEDE AVE,SAINT LOUIS,MO,N
GPQWSDFB,Maxey Truck Fitting,1908 SE FRONTAGE RD,FORT COLLINS,CO,N
QZXOSECD,Current David,215 E HIGH ST,MOUNT PLEASANT,MI,N
XHERPMCY,Independence Pavement Maintenance,2612 CHANCELLOR DR,PLANO,TX,N
PGZLWFKM,cheese steak factory,200 HADDONFIELD RD,CHERRY HILL,NJ,Y
DGEZUKNV,Golden Apple California Corp,3532 ARDEN RD,HAYWARD,CA,N
ESMCOGDN,Portage Public Library,2670 LOIS ST,PORTAGE,IN,N
HIMVLSUG,OAKWOOD GAS MART,5052 MCEVER RD,OAKWOOD,GA,N
RMYZTACU,Alexander & Associates,209 MARSH OAKS DR,CHARLESTON,SC,N
WCFGATVH,I Hate when People Tell Secrets About You to Other People,309 CHANCELOT LN,FORT MILL,SC,N
JYFXCOBR,Laughlin NV Real Estate,3650 SOUTH POINTE CIR STE 205,LAUGHLIN,NV,Y
RSDFBEYI,So Calif Lock & Key Service,6519 2ND AVE,LOS ANGELES,CA,N
YJDQICUP,Lamorinda Construction & Consulting,1265 DEL ARROYO CT,LAFAYETTE,CA,Y
EUZQODTA,GLOBAL TRUCK AND AUTO LLC,420 W INTERNATIONAL ST,NOGALES,AZ,N
CHNXUGTP,Parts Pit,215 N COLUMBUS ST,JEWELL,KS,N
BJTCFIDQ,Hebert's Cajun Cuisine,727 UNIVERSITY DR,COLLEGE STATION,TX,N
IDSLEKWR,Radioshack,106 S MAIN ST,EUFAULA,OK,N
YUILFSRK,Christian TV & Radio Network,1061 MASSACHUSETTS DR,XENIA,OH,N
JAZQTYNO,Maternova,460 HARRIS AVE,PROVIDENCE,RI,N
ZQEYJWSI,Ambient Media Inc,655 ROUTE 25A,MOUNT SINAI,NY,N
ZUATYFGS,Left Coast Art,194 1ST ST E,SONOMA,CA,N
RWXVCIBL,TM Tires & Auto Repairs,14021 VAN NUYS BLVD,ARLETA,CA,N
DPLITUAJ,Lickfork Freewill Baptist,1870 ROCKHOUSE RD,COEBURN,VA,Y
GTKMYHJB,s.w. anderson company,22795 SAVI RANCH PKWY,YORBA LINDA,CA,N
ASMWEGTQ,Tac Associates Inc,900 NW HILL RD,MCMINNVILLE,OR,N
QPUVYABR,W3 CPA'S AND CONSULTANTS INC,934 GLENWOOD AVE SE STE 140,ATLANTA,GA,N
IERTAXLV,ROSE FURNITURE,393 E HAMILTON AVE STE A,CAMPBELL,CA,N
EDVZJSIF,Pacific Process Systems Inc.,2232 E GLADWICK ST,COMPTON,CA,N
AZKCMQVO,Lorena's Professional Svc,3229 BELLE TER,BAKERSFIELD,CA,N
VBQCNJHS,Carolina Enterprises LLC,9932 TANTARRA DR,BURLESON,TX,N
PFATMICY,FetchDog,100 FORE ST,PORTLAND,ME,N
RHIXBOGF,Lombardofoley & Kolarik,825 4TH ST W,PALMETTO,FL,N
TVRKIEXD,CALOIA & HOUPT PC,121 N PARK AVE,MONTROSE,CO,N
SEXVAFLY,Katonah Day Care Center Inc,466 CROSS RIVER RD,KATONAH,NY,N
RQKGXTEJ,Sparks City Parks & Recreation,98 RICHARDS WAY,SPARKS,NV,N
NKRHPLJY,Harness Roofing Corp,415 S MAIN ST,HARRISON,AR,Y
SQIDTONH,Kramer Robert J MD,3400 S HUNTINGTON LOOP,KENNEWICK,WA,N
LKSMJZAV,Transition United Llc,60 CONNOLLY PKWY BLDG 11-214,HAMDEN,CT,N
VUKPTFRA,Intertape Polymer Group,281 INDUSTRIAL DR,GRETNA,VA,N
TORBLQCV,Watkins-Graham Home Builders,106 CORAL CREST DR,CONWAY,SC,N
AZFJGUTN,Mini of San Francisco,1675 HOWARD ST,SAN FRANCISCO,CA,N
ITEGZJLN,County Warehouse,802 E YOUNG ST,LLANO,TX,Y
XBEJNMZP,Arksel Inc,727 KINGS BENCH DR,HARTWELL,GA,N
GNERYTSV,CATALYST LENDING INC.,24655 MONROE AVE,MURRIETA,CA,N
XDUEGYNV,ANNETTE S KESLINGER,3 SADDLE CT,BEDFORD,NY,N
GXBTSEYR,Tracey L. Buckingham DC,8656 BROOK GLEN LN,HUNTERSVILLE,NC,Y
TCOWFHXB,Storage Express Llc,8441 HIGHWAY 44 E,MT WASHINGTON,KY,N
CSFZWLRG,Sanchez Noemy,6818 CAMDEN RD,DOWNERS GROVE,IL,N
VLMTDOYP,Scale Down Nutritional Center,1654 S COLORADO ST,GREENVILLE,MS,Y
ZSCRUXFV,917 Custom Meat Deli and Grill,727 HIGHWAY 917 E,LATTA,SC,Y
XFHBYIGS,Windsor Living & Real Estate-Mike Langhals,8979 CONDE LN,WINDSOR,CA,N
KXOPLVSE,Dairy Queen of Palatka,822 SAINT JOHNS AVE,PALATKA,FL,N
WIDBACPE,WILLIAMS FARM STORE,121 DIFFICULT RD,CARTHAGE,TN,Y
BAXFPVWY,Petty's BBQ,193 HIGHWAY 12 W,STARKVILLE,MS,N
SVZPKWFN,Arizona Leak Force,126 E ALAMEDA ST,TUCSON,AZ,Y
REXADKWB,7-Eleven,780 N NELLIS BLVD,LAS VEGAS,NV,N
LDFUQAWG,AKINES LOGGING,4213 BAKER FARM RD,SOPHIA,NC,N
YQOWRPBN,JS Custom Painting and Wall Coverings,16 KENDALL ST,LAGUNA NIGUEL,CA,N
WYHXGKBN,Milwaukee Pet Services,200 S WATER ST,MILWAUKEE,WI,N
WBEZYPOF,Amt Medical Staffing Inc,2 20TH ST N STE 1360,BIRMINGHAM,AL,N
MNIXYGCW,MACE INSURANCE,1119 SHILOH CHURCH RD STE K,HICKORY,NC,Y
RUXVKNBY,Century 21 Property Place Rlty,146 N MAPLE AVE,RIDGEWOOD,NJ,N
VRXHEGLB,BLANDO EDWARD M,316 2ND ST SE STE 124,CEDAR RAPIDS,IA,N
HPFRUBOS,7-Eleven,121 E STEWART AVE,PUYALLUP,WA,N
TXWBRIMJ,Casa Sedano,1734 W LINCOLN ST,LONG BEACH,CA,Y
KNXYHAZS,REEDY'S CUSTOM MEATS,39016 N ELK CHATTAROY RD,ELK,WA,N
ELAFYBWO,ADRIAN CHURCH OF GOD,704 BALDWIN HWY,ADRIAN,MI,N
RTUHZSDC,Student Transit Services,4274 S WESTERN AVE,LOS ANGELES,CA,N
RJDKOSAE,Passaic Housing Authority,234 CHESTNUT ST,PASSAIC,NJ,N
YZCSTDBQ,Advance Age Insurance Services Inc,1411 N PINE HILLS RD,ORLANDO,FL,N
WFYASJNC,Shell's Gift Baskets,19130 SCHOENHERR ST,DETROIT,MI,N
WOJCTRIN,Versitack,4946 TOP LINE DR,DALLAS,TX,N
EGYFJVAT,corporate junkie,7017 BOUNTIFUL GROVE DR,MCKINNEY,TX,N
MHDWENAU,BESTAK MARC MD,111 E 210TH ST,BRONX,NY,N
YQKFHELS,HIGHLAND THERAPY CENTER INC,2491 SYCAMORE LN,WEST LAFAYETTE,IN,N
GYJSHAQP,Quinn's Printing Ctr,1722 13TH ST SW,AKRON,OH,Y
XSKVQGMC,House Whisperer,4747 MORENA BLVD,SAN DIEGO,CA,N
BCLJEAQH,Mark D. Remmel Pharm,241 N 1ST ST,LEHIGHTON,PA,N
HSGBZUVX,KING 5 Night at the Museum,2323 ELLIOTT AVE,SEATTLE,WA,N
MTKDRSIV,PacSun,404 HUNTINGTON MALL,BARBOURSVILLE,WV,N
LNORBYAQ,MCKENNAS LIMOUSIN RANCH,2635 2 RD,PALCO,KS,N
DGAWNSJB,HOPKINS EXCAVATION,2117 BUCKEYE RD,LANCASTER,KY,N
VWNCZPXS,Little Creek Door,395 N CAMP 10 RD,MIO,MI,N
SBFQOXAL,COOK ELISABETH M.D.,1380 COWELL FARM RD,WASHINGTON,NC,N
VNOEYZJC,NYC Surgical Associates,1062 NORTHERN BLVD,ROSLYN,NY,Y
VANQFWYG,Mohawk,203 PROGRESS DR,MANCHESTER,CT,N
AHXTNJQR,CINCINNATI VEIN SPECIALISTS,4170 ROSSLYN DR,CINCINNATI,OH,N
OIFTNXEB,National Council for Public-Private Partnerships,1023 15TH ST NW,WASHINGTON,DC,N
EHSJCIAD,Villes Clothing And Plus,954 SPRINGFIELD AVE,IRVINGTON,NJ,Y
TJOQHXDU,Buddharaju L N R Md,17201 WRIGHT ST STE 200,OMAHA,NE,N
BUAHQCEY,Arc Veterinary Clinic: Chafee Ann R DVM,6330 SIRRINE RD,TRUMANSBURG,NY,N
PTJNVBFE,Pleasant Grove Baptist Church,2677 NC HIGHWAY 56,CREEDMOOR,NC,N
DPWAGHUK,Bee Sting Studios,5130 N FEDERAL HWY STE 9,FORT LAUDERDALE,FL,N
DXVWLJOY,EDWARD JONES,13305 JOSEY LN,DALLAS,TX,N
GALCNVYQ,Final Destination Hair,5359 W CENTINELA AVE,LOS ANGELES,CA,N
JHAKEZGL,ADVANCED BIO-TREATMENT,981 HIGHWAY 98 E,DESTIN,FL,Y
IRNFBXDZ,C BROTHERS LOGISTICS LLC,2249 HOPE CIR,WALDORF,MD,Y
MOLTVRIB,HR ENTERPRISES INC,4834 TOP LINE DR,DALLAS,TX,N
GUOAQBLF,SANITECH MAINTENANCE,401 W 5TH ST APT 2A,LONG BEACH,CA,N
EKUVNCLX,China 1,3616 BUECHEL BYP STE A,LOUISVILLE,KY,Y
WAGPQEVX,Devlin Appraisal,2010 RAINBOW GLEN RD,FALLBROOK,CA,N
CHUVKPGW,Varsity Baseball,22718 58TH PL S,KENT,WA,N
KDAPWZNF,CECY'S BEAUTY SALON,184 S CAPITOL AVE,SAN JOSE,CA,Y
IBSRFKOD,OSCAR KLEIN MD PC,1070 ROUTE 9,FISHKILL,NY,N
CIJPTBWF,Computerized Design Services,3190 CEDAR HAMMOCK CT,SAINT CLOUD,FL,N
MIOSDTGJ,MESSERE SELF STORAGE,2633 STATE ROUTE 49,WEST MONROE,NY,N
LUBJXHDR,Missouri Career Center,1903 NORTHWOOD DR,POPLAR BLUFF,MO,N
ITOBWRXS,Suntan city,3200 US 31 S,INDIANAPOLIS,IN,Y
HFXDIQZG,R. & RS BARBER SHOP,907 GAMBLE ST,TALLAHASSEE,FL,N
MPSTJCZD,Candler Feed & Seed,308 LIBERTY RD # 380,CANDLER,NC,N
UAEDTRHI,CHOICES,5725 OLD NATIONAL HWY,ATLANTA,GA,N
RVTNPBEJ,PROCIDA TILE OF FREEPORT,137 E SUNRISE HWY,FREEPORT,NY,N
GUVDJXNT,Saints & Shamrocks,309 BULL ST,SAVANNAH,GA,N
QFETMKUB,McAlpine Gwyneth E Atty,1120 NW COUCH ST,PORTLAND,OR,N
IUXEWQAO,Michanalee Ladies Apparel,3101 E SHILOH RD,CORINTH,MS,Y
VPTMISAO,GALVA HOLSTEIN AG LLC,306 S MAIN ST,HOLSTEIN,IA,N
AFNBMHKI,Fall Line Interior Design,300 VAGNEUR LN,BASALT,CO,N
NDGVSYAR,Tarheel Safe & Lock,3501 CEDAR HILL DR,FAYETTEVILLE,NC,Y
UOABLSIQ,Cleratoma Park,850 GARFIELD AVE,MILFORD,OH,N
LUEWSNCM,I E Pacific Inc,1663 PACIFIC RIM CT,SAN DIEGO,CA,Y
DLQKSJAO,Video Multi-Media Commercial,8241 ROBIN HOOD DR,SALISBURY,MD,N
BZJHXQOA,Dockside Cleaners,2794 US HIGHWAY 1 S,ST AUGUSTINE,FL,N
ZRJGVUSM,Life Song Inc,16 DYER DR,CLIFTON PARK,NY,N
WBHXOENQ,Swell Gallery,2565 3RD ST,SAN FRANCISCO,CA,N
XLQPBVDY,Super Buy Rite of Bayville,333 ATLANTIC CITY BLVD,BAYVILLE,NJ,N
SENVRDZJ,Jax Tires,5431 ROOSEVELT BLVD,JACKSONVILLE,FL,N
MYKNWCQS,Burger King,1620 S MILITARY HWY,CHESAPEAKE,VA,Y
BJPFGDIS,Coldwell Banker,29905 MIDDLEBELT RD,FARMINGTON HILLS,MI,N
OTYGFPMC,James Bond Investigation,2201 PEASE ST STE A,HOUSTON,TX,N
ZOFUNAEL,Tin Shed Antique Auto Repair,9110 DICE RD,SANTA FE SPRINGS,CA,Y
LUOISDQK,Napa Auto Parts,108 MAIN ST,WESTCLIFFE,CO,N
SPOTEYZV,Dine n Dash Youngstown,2718 MAHONING AVE,YOUNGSTOWN,OH,Y
NLGMTEAO,Gold Star Chili,8259 COLERAIN AVE,CINCINNATI,OH,N
JXGYQULS,The Party,2630 HORSESHOE DR,HIGHLAND,MI,N
AOJYLZQG,Beak's Old Florida,2451 CENTRAL AVE,ST PETERSBURG,FL,N
CAVBSQGM,East Baton Rouge Laboratory Academy,3730 WINBOURNE AVE,BATON ROUGE,LA,N
NCBFHOQW,Franco Natural Wondes,3495 POTTERY CT,STOCKTON,CA,N
CEHLKAUB,E I C-COMFORT HOME,3526 CLIFF ST,FINLEYVILLE,PA,N
ZEAJMDRU,Synovus Financial Services,1324 VETERANS PKWY,COLUMBUS,GA,N
GOYQCDKA,Anderson Nolan Insurance Agcy,621 N SHERMAN AVE,MADISON,WI,N
IQRWTBDA,gurrentz international corp,1501 ARDMORE BLVD,PITTSBURGH,PA,Y
MBEVUJAG,Edward Jones Investments,1000 NORTHCHASE DR STE 101A,GOODLETTSVILLE,TN,N
VZXMSDWE,Oda & Co-LPL,416 W LIBERTY ST,MEDINA,OH,Y
YIWJQNGH,Live Worms Gallery,1345 GRANT AVE,SAN FRANCISCO,CA,Y
PZRNYEKA,Shasta Medical Equipment,1357 HARTNELL AVE,REDDING,CA,N
FOTHEBCZ,H & L Automotive Service & Alignment,10332 DRANSFELDT RD,PARKER,CO,Y
EWBZRFGY,KJ's Mobile Detailing,6515 GOVERNOR PRINTZ BLVD,WILMINGTON,DE,N
SBDORTIV,PRECISION DAYLIGHTING INC,8 CAPPER DR,PACIFIC,MO,N
GMPRSLOW,NJG PROPERTY MANAGEMENT,759 E 81ST AVE,MERRILLVILLE,IN,N
YNCZGJWR,Burke's Outlet,806 PELHAM RD S,JACKSONVILLE,AL,N
RLWXAKFE,Press Amy E Optmtrst,248 CITY CENTER DR,COLUMBUS,OH,Y
KSRUNTJO,Orchard Advisors,1509 VILLA PL,NASHVILLE,TN,N
ANJYOVTD,Scenic Strokes Canoe & Kayak Rental,2591 BIG FALLS RD,BLACKSBURG,VA,N
GSYBLJXV,J L A Jewelry Store,50 UNIVERSITY AVE STE 240,LOS GATOS,CA,N
AUMHRTXF,PERMANENT COATINGS INC,3830 OLD WILLIAM PENN HWY,MURRYSVILLE,PA,N
FZRPCLUE,Alaimo Anthony & Laurie,315 CORRIGAN TRCE,PEACHTREE CITY,GA,N
ODKMSCHE,DR. EPHRAIM SEMAH MD,874 PURCHASE ST,NEW BEDFORD,MA,Y
OSXZITYE,Hard Rock Demolition,294 CLAYTON ST,LAS VEGAS,NV,N
SOWICFDM,PRESTIGE PEST CONTROL,3209 PATINA ST,LAS VEGAS,NV,N
JICTKUXG,Assabet Advisors Llc,4 SMITH RD,NORTHBOROUGH,MA,N
ZBAUPCTL,Engemann Family LP,600 N ROSEMEAD BLVD,PASADENA,CA,N
JYOGSDAV,Brodney & Nishimura,333 S GRAND AVE FL 25,LOS ANGELES,CA,N
IBWNHGQK,PAY LESS CLEANERS,5823 S STATE ST,SALT LAKE CITY,UT,N
IKGRYWPC,2211 Michelson,2211 MICHELSON DR,IRVINE,CA,N
UEFVXGNM,TICO REFRIGERATION INC,11075 OAKHAVEN DR N,PINELLAS PARK,FL,N
EVXRCDIM,Woodstream Village,10150 E HARVARD AVE,DENVER,CO,N
OYXVEUKD,1642 Comedy Social Club,1642 W TEMPLE ST,LOS ANGELES,CA,N
LJSIYCON,Jos. A. Bank Clothiers Inc.,1830 NORMAN DR STE A,VALDOSTA,GA,N
MRFVCOAY,Sanford Wayne,10635 W 600 S,WOLCOTT,IN,Y
LJRXAKSQ,Cho cho san,15 W 8TH ST,NEW YORK,NY,Y
KUNPQOGD,CHURCH OF CHRIST,1185 MCDONALD CHAPEL RD,COLLINS,MS,Y
WTAKSLVM,Norco Fire Dept,3421 VALLEY VIEW AVE,NORCO,CA,N
QWDGRAOF,Vine & Sun,18506 142ND AVE NE,WOODINVILLE,WA,Y
TKOALUIV,Kamari Development Corp,4138 69TH ST,WOODSIDE,NY,Y
VMDQFUNW,Hunt's Service Co,5504 OSBORNE ST,BAKERSFIELD,CA,N
XUMATQRG,Railway Pizzeria and Bar,318 3RD AVE,PROCTOR,MN,N
NQAZKIDC,Silk Road America,1218 SANTA MONICA BLVD,SANTA MONICA,CA,N
HRFYKBZG,Alphagraphics,208 S LA SALLE ST,CHICAGO,IL,Y
RXTHEKJW,Ccs International,5 ACRE VIEW DR,NORTHPORT,NY,Y
JGHMDFZR,Soumya Gayatri,2530 OAK RD,WALNUT CREEK,CA,Y
DWQXPOCH,AFTRA-SAG Federal Credit Union,14118 MAGNOLIA BLVD,SHERMAN OAKS,CA,N
TSYCPZGV,Los Bandidos Mexican Grill,608 OCEAN AVE,POINT PLEASANT BEACH,NJ,Y
OXGURQPM,Thai House,5624 E LA PALMA AVE STE C,ANAHEIM,CA,Y
IZYTROPF,HOME MATTERS OF TEXAS,305 W MERCER ST,DRIPPING SPRINGS,TX,N
ZSFMGHQE,Rodbusters Inc,36 BROADMOOR LN,WESTBURY,NY,Y
XAJEHGZM,Malcolm's Haircutters,130 N KEYSER AVE,SCRANTON,PA,Y
BFYANCOU,BUDGET PRINT CENTER,1202 MAIN ST,BELMAR,NJ,N
PNFWUYML,Budget Truck Rental,364 FRONT AVE,SAINT PAUL,MN,N
WACRDNHV,Metalon Inc,5205 BLUE STEM CT,RALEIGH,NC,N
TCIEWXJL,EthnicFest,2401 35TH AVE,GREELEY,CO,N
SZAGQMBE,SOMERS COOK ASSOCIATES INC,825 OXFORD MEADOW CT,ALPHARETTA,GA,N
XQYUZRPI,Convermat Corp,45 N STATION PLZ STE 400,GREAT NECK,NY,N
OQIGCMRH,Personally Yours,314 E KING ST,KINGS MOUNTAIN,NC,Y
TQXHROYP,Catlin Bulk & Natural Foods,1872 BORDWELL RD,PENN YAN,NY,N
PTGMBFQW,Dark Bridge Capital,99 MAIN ST,NYACK,NY,N
VAGKIXEM,Kellygreen,2149 W SUNSET BLVD,LOS ANGELES,CA,N
EBTAYOXH,wine&spirits,1465 N WEST END BLVD,QUAKERTOWN,PA,N
OPQBFHWR,Association Of Energy Services Professionals,15215 S 48TH ST STE 170,PHOENIX,AZ,N
TUKIZRMA,Park City Cash Mob,589 S FOOTHILL DR,KAMAS,UT,N
NQXZMYAF,Lucille A Larson,4011 405TH AVE NE,STANCHFIELD,MN,N
LNBQFDAU,GERMANTOWN SELF STORAGE,2643 DAYTON GERMANTOWN PIKE,GERMANTOWN,OH,N
NJPLXBQO,By Design I Am,13030 W 90TH AVE,SAINT JOHN,IN,N
BOEIMTHF,Rosie's Restaurant,383 HATHAWAY RD,NEW BEDFORD,MA,N
LGEPKBOI,INLAND HILLS EQUIPMENT INC,13771 ROSWELL AVE STE G,CHINO,CA,Y
DZHTJXFM,Harry W. Rohr BCBA,2967 NATURAL BRIDGE RD,TALLAHASSEE,FL,N
NBLKFAVZ,Gel Nails,13435 S MCCALL RD,PORT CHARLOTTE,FL,Y
ZUDOESRJ,DISABILITY MANAGEMENT,4576 SUNBURST CT,WHITMORE LAKE,MI,N
PYQOLKBZ,Don Quixote Travel,720 W 181ST ST FRNT 2,NEW YORK,NY,Y
ESQLMCDX,Blake Christopher Lee,11 GREEN ST,JAMAICA PLAIN,MA,N
DQCPGMXJ,ANYTHING WILD ANIMAL CONTROL,1895 COUNTY ROAD 2100 N,URBANA,IL,N
KNYLCVOB,Old Dutch Food Inc,2808 INDUSTRIAL RD,PIERRE,SD,Y
WYMRTOLF,Rosebud of Grand Haven,100 WASHINGTON AVE,GRAND HAVEN,MI,N
SZACYVMX,Hennen & Associates,10581 COUNTY ROAD 2300,QUINLAN,TX,N
KOMYFHZE,Alfred Lawn Service,2207 PLUNKETT ST,HOLLYWOOD,FL,N
MEGCVWFS,Gaffney Ronald L,455 S 4TH ST,LOUISVILLE,KY,N
RTYPBUVG,Kedron Road,3314 KEDRON RD,SPRING HILL,TN,N
XZNSEDGI,Daleo Paul Rev,316 35TH ST,UNION CITY,NJ,Y
MYPRODGW,RAJ MOSES S MD,320 E NORTH AVE,PITTSBURGH,PA,N
EQHBPWVU,Reproductive Health Care,816 INDEPENDENCE BLVD,VIRGINIA BEACH,VA,Y
NSUTJMOY,ROUTES TO ROOTS FOUNDATION,73 HARBOR KY,SECAUCUS,NJ,N
NSZXDYFG,Yert Insurance Agency,9175 CHILLICOTHE RD,KIRTLAND,OH,N
TURQJGLV,Jackson James  - Allstate Insurance Company,1702 GILLIONVILLE RD,ALBANY,GA,Y
OEXSKPHA,WARNACK BROTHERS REMODELING AND,7332 APPOMATTOX DR,MURFREESBORO,TN,N
RAZMLVOB,Putnam Family Dentistry,6083 MYRTLE AVE,RIDGEWOOD,NY,Y
SMKYORCF,Life Fitness,215 MC DUFFIE LN,FORT MILL,SC,N
JEYQCTKO,Turbo Frog Productions,41 AVENTURA RD,SANTA FE,NM,N
RHAVULSK,United Health & Life LLC,810 MATSON PL,CINCINNATI,OH,Y
GJMLAXDU,Wonder General Store,11465 REDWOOD HWY,WILDERVILLE,OR,N
JZXUPRKT,PATEL MAYUR,2009 N COCOA BLVD,COCOA,FL,N
ZTDLGYUE,East Coast Southern District,245 LIBERTY PARK RD,JACKSONVILLE,NC,Y
TLVGBIQX,INTERNATIONAL PAPER,801 42ND ST,SPRINGFIELD,OR,N
MUTXHFSD,Small Business Administration,401 N FRONT ST STE 200,COLUMBUS,OH,N
RXOILYEF,MCKNIGHT JEWELRY & ENGRAVABLE,340 COUNTY ROAD 239,DURANGO,CO,N
IFUTSPLE,Charles Zaroulis MD,256 MASON AVE,STATEN ISLAND,NY,Y
SHUCGBPF,PROFESSIONAL ASSOCIATION-GA,2971 FLOWERS RD S STE 151,CHAMBLEE,GA,N
RENPYAKQ,Starcraft Construction,25 ISRAEL ST,WESTERVILLE,OH,Y
SMHYJVUO,HEART HAVEN THERAPEUTIC,1429 COUNTY ROAD 5710,WILLOW SPRINGS,MO,N
QMTDCIVK,Greeneye Autos,1681 W 7TH AVE,EUGENE,OR,N
KORXEHIV,Medetrac Systems LLC,10970 IRONWOOD RD,SAN DIEGO,CA,Y
IJQSYPEG,custom fab co. inc.,148 RHODOMOYER RD,MILLVILLE,PA,N
KRYMLZQU,Johnny Carinos,510 W IH 636,DALLAS,TX,N
KUYSHQXZ,C R & Sons Salvage & Towing,7903 SE HWY 166,BAXTER SPRINGS,KS,Y
TFKWXHZI,The White Slipcover,134 SPAULDING AVE,BROWNSVILLE,OR,N
ZOWHBIRF,Anthony Sergi Racing Shocks,1575 EVANS ST,OVIEDO,FL,N
EBCAFLXY,Source Of New York,372 HIGH ST,HOLYOKE,MA,N
OAEDLIYH,Chandler Hair Care,2050 N ALMA SCHOOL RD,CHANDLER,AZ,N
UGAXCHEO,Alta-Pak Midwest Inc,3401 N JACKSON AVE,KANSAS CITY,MO,Y
ICAGXNVR,Nepali Samiti,541 MAIN ST,NEW LONDON,NH,N
PGQKMZHA,Cook Nancy G,6501 BROOKFIELD PL,CHARLOTTE,NC,N
CKTUGHNR,Firehouse Signs,560 S MAIN ST,SAINT CLAIR,MO,Y
CVDZPWER,SPRINGFIELD,3515 S DOUGLAS AVE,SPRINGFIELD,IL,N
BWSYVFIR,APPLIANCE ADVANTAGE SERVICES,6427 PATIENCE CT,ALEXANDRIA,VA,Y
ENIUCOWA,Dsi Security Svc,1414 BROADWAY ST,DAKOTA CITY,NE,Y
GDCVTEQK,DAVINCI FINANCIAL,42 N SUTTER ST,STOCKTON,CA,N
DAQWLZPX,Ruiz M,218 BLOOMFIELD AVE,NEWARK,NJ,Y
BFTLVCRA,STATION ONE HOTEL,2321 ATLANTIC AVE,VIRGINIA BEACH,VA,N
ETIFMUQW,Thomas Marios BBq,954 E SWAN CREEK RD STE B,FORT WASHINGTON,MD,N
AJQXOISU,METRO TITLE INSURORS INC.,10 S MAIN ST STE 1,PERRYVILLE,MO,N
NXJFGOQZ,ITSY BITSY PRESCHOOL LLC,826 ATHERTON BLVD,BRENTWOOD,CA,N
TIJGMPEF,Hair Boutique,416 TYLER ST,PITTSFIELD,MA,N
TVXFMEJP,Hazeltine Cleaners,5935 HAZELTINE AVE,VAN NUYS,CA,N
VUICJMNE,BLOCKBUSTER Express Kiosk,3905 GOODMAN RD E,SOUTHAVEN,MS,N
ZPDJBXYA,Universal,12755 E 9 MILE RD,WARREN,MI,N
EUVYKDNC,Cho Dang Tofu Restaurant,9601 SOUTH TACOMA WAY,LAKEWOOD,WA,N
JURMCQAT,Awesome Town,530 2ND ST,PORTSMOUTH,OH,N
USAYRNQI,MAYFIELD AGENCIES,7650 E BROADWAY BLVD STE 108,TUCSON,AZ,N
EFBLJPCI,Choate Deborah Dr,227 CONCORD AVE,CAMBRIDGE,MA,N
RQCBYOEJ,Genesis Development,1607 LAKE AVE,STORM LAKE,IA,N
TJWUGVEF,MILLER LAW GROUP,2114 S NORFOLK AVE,TULSA,OK,N
THIWQCZB,1 STOP GRANITE,4600 FREDERICK DR SW STE F,ATLANTA,GA,N
FEJPAUVC,ULTRA INGREDIENTS,1510 11TH ST STE 208,SANTA MONICA,CA,Y
QKZBCNRL,Store 626 Fresno Bl,5243 N BLACKSTONE AVE,FRESNO,CA,N
BJMVSRYP,Yummy Donuts,2402 MARINA BAY DR,LEAGUE CITY,TX,Y
YCHANJOL,La Loma Development Company,556 S FAIR OAKS AVE,PASADENA,CA,N
DGUTCYWE,Cool Kind Kid,17 W 8TH ST,OCEAN CITY,NJ,N
XRWNEBLD,OMART Business Solutions  -  (Northern Liberties),836 N 3RD ST,PHILADELPHIA,PA,N
FQLNMDVK,United Full Gospel Temple,918 BLOUNT ST,SMITHFIELD,NC,N
MLAIWJVZ,COhen MOShe,629 S HILL ST STE 500,LOS ANGELES,CA,N
NFXOTVGL,Edward Jones - Financial Advisor Douglas A Duvall,109 E MOUNTAIN ST STE A,KERNERSVILLE,NC,N
GCFJLHDE,Smith C Frederick DDS,46 SHELOR DR,LYNCHBURG,VA,N
UMDZLBCQ,Murphy's Warehouse,3211 PACIFIC AVE,WILDWOOD,NJ,N
KGWXEVCL,HABITAT FOR HUMANITY OF GREATER NEW HAVEN INC,37 UNION ST,NEW HAVEN,CT,N
XUZWROTG,Jodi Potter LPTA,915 ELLA T GRASSO BLVD,NEW HAVEN,CT,N
PJDIWOES,First United Methodist Church,426 AUSTIN ST,TRUTH OR CONSEQUENCES,NM,Y
XIVHJDYK,Pichon Auto Glass,633 N 13TH ST,SAN JOSE,CA,Y
QDFLOYVC,SANTEK ENVIRONMENTAL INC,1947 DENTVILLE RD,DELANO,TN,N
ILAFNHWK,K Duncan Designs,12083 W 835 RD,TAHLEQUAH,OK,N
JWXQPEND,Merit Realty,8631 S PRIEST DR,TEMPE,AZ,N
WYTQJMZU,TIDE MILL CAFE,2706 N ARMISTEAD AVE STE C,HAMPTON,VA,N
QVSOZLDU,Brady's Waterproofing,305 TIOGA ST,JOHNSTOWN,PA,Y
LRCQYEDF,Bookkeeping Solutions,48064 IVERSON XING RD,BRANDON,SD,N
XDUGOLIH,Walker Carla,1020 W WASHINGTON ST,MONTICELLO,FL,Y
ACFMVSRP,Slade C Crawford Msgr,2750 S BYRON BUTLER PKWY,PERRY,FL,Y
EXFJWTYU,Dan Atlas DVM,12255 W BOWLES AVE,LITTLETON,CO,Y
UWDAMVSO,EDUARDO FERNANDEZ MD,101 BURRS RD STE C,WESTAMPTON,NJ,N
NCEGUFQK,MARSHALL MICHAEL MD,154 W 14TH ST,NEW YORK,NY,N
XWSZAERN,TS Insurance Group,300 INTERNATIONAL PKWY STE 270,HEATHROW,FL,N
JRLSCFHE,Winston Johnson,1341 AUDUBON CT SW,ATLANTA,GA,N
DBVQZSYJ,Tri-Parish Bank Lafayette,914 S COLLEGE RD,LAFAYETTE,LA,Y
MVFRXLNI,Starbucks,175 W ARMY TRAIL RD,GLENDALE HEIGHTS,IL,Y
EQFWUVTS,A A A Aluminum Corp,11205 SW 71ST AVE,MIAMI,FL,Y
FORKAPYL,MSI Radiology,11550 COMMON OAKS DR STE 110,RALEIGH,NC,Y
WOUZCMQE,MARY E MOORE MD,4 TERRY DR STE 1,NEWTOWN,PA,Y
ZJXBFWKQ,Lyons & Associates Inc Realtors,2820 E GARVEY AVE S,WEST COVINA,CA,Y
AJTPGDKO,J CREW,7301 SW BRIDGEPORT RD,TIGARD,OR,N
BTZIEWFU,Nina's Nail,9139 PARK BLVD,SEMINOLE,FL,N
IQHXKOWV,Cliosoft,39500 STEVENSON PL STE 110,FREMONT,CA,N
KLJADBIX,CSI ROOFING CO,4231 BONHAM ST,DALLAS,TX,N
GJWMZXIP,DIFFERENT SOUNDS UNLIMITED,8103 W 98TH ST,PALOS HILLS,IL,N
LBUYAOVC,Cintas,6450 W 83RD ST,LOS ANGELES,CA,N
FWTAZKPI,CHARLESTON FINE HOMES LLC,3560 HARTFORD VILLAGE WAY,MT PLEASANT,SC,Y
