unique_id,Name,Address,City,State,is_closed
NABJXMSD,Park Row Medical & Dental,801 W PARK ROW DR,ARLINGTON,TX,N
YECTHKFX,Hssw Power Ferry Retail Llc,6370 POWERS FERRY RD,ATLANTA,GA,N
QMEJLAZN,WILDERNESS ARCHERY,127 S SAINT AUGUSTINE ST,PULASKI,WI,Y
YAPDJZVG,LASTING IMPRESSIONS,504 MAJOR LN,NEOSHO,MO,N
GNWIJBTF,community health works,105 PATROL RD,FORSYTH,GA,N
EFHSDNMX,Frankey Lock & Safe,2829 BIRD AVE,MIAMI,FL,Y
UBLVPTFC,Smith W H,100 IBERVILLE ST,NEW ORLEANS,LA,N
JCFDHUMV,Webbed Foot Photography,10817 WALNUT ST,LOS ALAMITOS,CA,N
HDGBCQMN,Sarah R. Armstrong LMT  Licensed Massage Therapist & Scentsy Consultant,70 CENTER ST,ADAMS,MA,Y
CNEPQGDX,Tre AMICI @ the Ybor Bunker,1907 N 19TH ST,TAMPA,FL,N
JZOMAKFC,Gerken Robert J DC,621 W PINHOOK RD,LAFAYETTE,LA,Y
HLZXVMOU,Home,4707 N 79TH DR,PHOENIX,AZ,N
CTONYHAG,Casa de Fitness,3805 N OAK TRFY,KANSAS CITY,MO,Y
HNLGEPDR,Mid Pac Petroleum,511 W KAWAILANI ST,HILO,HI,Y
FNTZLHQD,EAST AV PAYPHONE,211 EAST AVE,NORWALK,CT,N
COJWNEFD,COMPUTER TECHNOLOGY SERVI,160 S PINE HARBOUR DR,COLDSPRING,TX,N
IBPSKTDZ,Farmers Insurance Group,625 N A ST,OXNARD,CA,N
SLWDENXC,James D Hudson,14126 ROCK DOVE LN,HOUSTON,TX,Y
XPVKRUFG,Electric Myers,425 W LA CADENA DR,RIVERSIDE,CA,Y
NUAZDCVF,Pennywise Transport Inc,6275 S COUNTY ROAD 57,ALVADA,OH,N
WPJHVADN,Nadeau,2726 MAGAZINE ST,NEW ORLEANS,LA,Y
OETZRLND,Fenton Parkway Trolley Station,2288 FENTON PKWY,SAN DIEGO,CA,N
XKVLDUPI,Buckley's Carpet & Vinyl,1801 LINCOLN LN,BROOKINGS,SD,Y
NDYAWEOX,Edwards Construction,3328 GA HIGHWAY 33 S,MOULTRIE,GA,Y
OLVNACEP,Watson Hardwood Floors,8 PARTRIDGE HILL RD,WESTON,MA,N
WCPUFYGD,Trout - Bar & Grille,,,,Y
LIKBOWAH,- CLOSED,102 SMITH ST,BROOKLYN,NY,N
KWOPTMJD,GLENN O HAWBAKER INC.,885 SULPHUR SPRINGS RD,SOUTH WILLIAMSPORT,PA,N
QUIVKDGF,Ftg,1200 E ADMIRAL DOYLE DR,NEW IBERIA,LA,N
MCEKAYGF,R and R Roofing,9651 GEMINI DR,INDIANAPOLIS,IN,N
XUKYAHEQ,Big Vinyl Works,901 HOUSTON ST,MUSKOGEE,OK,N
KGIFPCAS,Jeanne Trifone PsyD,215 W INDIANA AVE,CHESTERTON,IN,N
NYJEDFCG,Schaumburg Limousine,688 E IRVING PARK RD,ROSELLE,IL,Y
BQXAUKVN,Church Of Jesus Christ Of Lds,4020 S BUMBY AVE,ORLANDO,FL,N
VDBOHISK,Madison County Drug Court,475 NEFF CIR # 366,BLACKFOOT,ID,N
YNDJEWMI,Vertex Machine Works,2415 NW 3RD AVE,MINERAL WELLS,TX,N
YGDOKFST,Cayuga County Soil and Water Conservation District,7413 COUNTY HOUSE RD,AUBURN,NY,N
RFAJVLCH,Carrillo-Tibbels Pllc,204 W WALNUT ST,DECATUR,TX,N
TYKCQXSB,Peak Office Furniture,2500 W 8TH AVE,DENVER,CO,N
RKQOZTLY,www.peakofficefurniture.com,,,,N
WTJEDZXM,The Old House,26481 W BEACH ST,ANTIOCH,IL,N
YRFJGVCZ,I'm IT - Technology Support and Services,10 LUPINE AVE,SAN FRANCISCO,CA,N
IDMZGWSA,Dorothy Family Beauty Salon,2483 WATERWOOD DR,CHANDLER,TX,N
FOEJUYTM,K J AUTO BROKERS,2495 LINWOOD AVE,NAPLES,FL,Y
UZFNHMIC,Alexander Nagel,1844 COLUMBIA RD NW,WASHINGTON,DC,N
SEQKMWVX,Holyfield's Place,1326 BISSELL ST,SOUTH BEND,IN,N
XJNWOUML,WHITTINGTON BRIDAL,2665 ROYAL FRST,KINGWOOD,TX,N
EAZHJIMP,Southland Roofing,1208 E WILL ROGERS DR,STILLWATER,OK,N
SHEVKMPQ,Whall Jeffrey D DVM,15529 THOMPSON RD,SILVER SPRING,MD,N
WKBAFTZL,REPUBLIC RISK MANAGEMENT LLC,1101 30TH ST NW STE 220,WASHINGTON,DC,N
PAXIUYGD,M Express Two Corp,1930 OPA LOCKA BLVD,OPA LOCKA,FL,N
UWPKFXYB,Carr Allison,6251 MONROE ST STE 200,DAPHNE,AL,N
PXIQGNBC,Sherlock Homes Realty,6616 W CAMELBACK RD,GLENDALE,AZ,N
UVNJDOMF,SURRAJ PLASTICS COMPANY LTD,10612 TRASK AVE STE C,GARDEN GROVE,CA,N
HZXNPIYM,Shackle Island Church of Christ,3578 LONG HOLLOW PIKE,GOODLETTSVILLE,TN,Y
XJLTWDEK,Fiz Plumbing,8504 FIRESTONE BLVD,DOWNEY,CA,Y
TEWMQCDK,Jiamachello Philip F DDS,221 SIMPSON PARK RD,SHELBY,NC,N
LQJWXCBY,Avero Craft Pizzeria,821 LANCASTER AVE,WAYNE,PA,Y
MDCPKGWF,WYATT & HUDGINGS LLC,190 E HUNTER DR,GLOBE,AZ,Y
TCOILYHZ,Cfi Security Inc,1325 PENDALE RD,EL PASO,TX,N
UXPWGQZO,SHORES COMMUNICATIONS ADVISORY LLC,811 BAY HARBOUR DR,REDWOOD CITY,CA,N
ZWXNPTAM,S M Solutions,49 WOODHAVEN WAY,SICKLERVILLE,NJ,N
JWSOVRFQ,Xtend Consulting Llc,1825 BARRETT LAKES BLVD NW,KENNESAW,GA,N
IJHRAMLO,Handyman Roofing,11327 N BOULEVARD,TAMPA,FL,Y
COVILETA,budget rent a car,5048 S 27TH ST,MILWAUKEE,WI,Y
IYXACKLB,Benet William E Phd Psyd,9141 SW 49TH PL,GAINESVILLE,FL,Y
YBOASFJE,Southern Drains,2454 OAK KNOB RD,LAFAYETTE,TN,Y
GKOBSVMT,ASAP MAILING SERVICES INC,2513 S GESSNER RD,HOUSTON,TX,N
ECDOVJTM,Clear Reflections Pools and Spas,11606 QUARTER HORSE TRL,AUSTIN,TX,N
VIGDQNMO,Flood Control - Fire Water & Sewage Specialists 24 hour service,5231 S WOODLAWN AVE,CHICAGO,IL,Y
RZKXEQAC,Ariston Homes Inc,690 JOHNSON DR,KERRVILLE,TX,Y
WFXURLND,LOCK-UP MINI STORAGE,746 E RIDGE DR,OMAK,WA,N
LBWTYJUX,Wildman & Son Painting,164 HORSE FENCE HILL RD,SOUTHBURY,CT,N
AHQGDZTN,DWAIN JOSEPH KILBURG,15629 407TH AVE,BELLEVUE,IA,Y
LZYEFOWX,Affordable Mini Storage,2008 E 16TH ST,BURLEY,ID,N
FBMJOELQ,Halsey House,1601 DARBY DR # 1623,FLORENCE,AL,N
KFJRBQED,health insurance coverage,385 CENTRAL ST,FOXBORO,MA,N
SARJMCGK,CUTTING EDGE,911 N UNION ST,DODGEVILLE,WI,Y
VIUFZAGL,MORSE CHANNING,1605 33RD ST,SAN DIEGO,CA,N
NEFIGKRS,Firstnet Acceptance Llc,1220 N MARKET ST,WILMINGTON,DE,N
JQVYAREG,Modem Ok,754 COUNTRY PLACE DR,PEARL,MS,Y
DSNXROYP,J M UNDERGROUND COMMUNICATIONS INC,2103 EDGEWOOD RD,LEESBURG,FL,N
HPVQNIAE,MIKE MURRAY CONSTRUCTION INC.,82 BRIDGEWATERS DR,OCEANPORT,NJ,N
NRMPTJQY,Regency Auto Sales,3681 COVINGTON HWY,DECATUR,GA,N
SGANBKHZ,Craig Freeman,6900 WEDGWOOD RD N,MAPLE GROVE,MN,N
TPOWKGQU,The Woodlands Heating & Air Conditioning,59 W INDIAN SAGE CIR,SPRING,TX,Y
NUKSZDTV,YARDBUSTERS,3950 CAMROSE PL,MARIETTA,GA,N
FRYEUAQW,Koustareva Kate Cpa,3224 WILD ROSE LOOP,WEST LINN,OR,N
UGPKYEDR,JOHN G. WRIGHT LAW OFFICE,101 E MARKET ST,WARSAW,KY,N
TPLRWKCB,Cold Stone Creamery,3702 S KINGSHIGHWAY BLVD,SAINT LOUIS,MO,N
BJTWVNSI,24hr Dc Emergency Locksmith,5211 NEW HAMPSHIRE AVE NW,WASHINGTON,DC,Y
QMUCIESH,Dirty Bandits,1 N 12TH ST STE A7,BROOKLYN,NY,Y
UEPCFYZV,Shea Wanda B,530 OAK COURT DR,MEMPHIS,TN,N
ZKIRHUYD,Hair Tamers,421 MILLINGTON ST,WINFIELD,KS,Y
RZJGHTQC,Joy of Sewing,15800 BOONES FERRY RD,LAKE OSWEGO,OR,N
NPUWAFOL,Us Fish & Wildlife Dept Svc,754 COUNTY ROAD 203,UVALDE,TX,N
LNIWMVZH,Kuts 5th Avenue,1100 W 5TH AVE,LEXINGTON,NC,N
KLAUZIGE,Dunkin' Donuts,20 MAIN ST,OAKVILLE,CT,N
EDQNTGMP,Greater Lehigh Valley Chamber,158 NORTHAMPTON ST STE A,EASTON,PA,N
VPFARQNY,Diva Girl Independent,20696 HIGHLAND DR,SPRINGDALE,AR,N
WHMDREAJ,Upfit Llc,7347 W FRIENDLY AVE,GREENSBORO,NC,N
UDQBNYZC,Nails by Milissa at Azure salon,31 W HONEYSUCKLE AVE,HAYDEN,ID,N
ITEUWAJD,Lamoreau Kelly,538 WESTERN AVE,AUGUSTA,ME,Y
FQBAMEUD,Nimrod Systems,200 W SUPERIOR ST STE 310,CHICAGO,IL,N
TQXBWCFI,expose 2 fashion,328 WHITE HORSE PIKE,CLEMENTON,NJ,N
BSLEOJAR,B & E Custom Interiors Inc,7586 58TH CT,VERO BEACH,FL,N
MSJOUHYW,L Randle Auto SVC,8613 SAUNEY CHAPEL RD,CHAPPELL HILL,TX,Y
BKNTADWJ,Players Club Internet Cafe,544 PLAZA DR,FOSTORIA,OH,N
IWEVNUOA,Direct TV,300 S GRAND BLVD,SAINT LOUIS,MO,Y
HVZNMSQD,Danny's Restaurant,3715 GENESEE ST,BUFFALO,NY,N
UXOSFNHR,"Toys""R""Us",17062 STATE ROAD 7,BOCA RATON,FL,N
UHWVPRMB,Waffle House,2597 COBBS FORD RD,PRATTVILLE,AL,N
XSNGAJRT,Hydroturf L L C,17398 MACKINAW TRL,LEROY,MI,Y
ZJXKTWUM,Fresh Select,250 KATHLEEN CT,SANTA MARIA,CA,Y
OGEWFRMZ,PRECIOUS N PEARLS INC,12647 O ST,OMAHA,NE,N
MZDTKGFY,Matthews Julie T,408 PARKWAY STE A,GREENSBORO,NC,N
SIZHEKGY,Bristol Manor,100 W 12TH ST,WASHINGTON,MO,N
CAUXKDOQ,Visions Unlimited,1503 ELMORE POND RD,WOLCOTT,VT,N
HVOWMTLD,Skinner's Roadside Truck Repair Inc.,5908 TRUCK VILLAGE DR,MOUNT SHASTA,CA,N
AISKZMPY,AFFORDABLE CLOTHING AND MORE.,4577 MCKINLEY RD,CHINA,MI,Y
LBPKSNXZ,Salon Q & Gallery,5207 S STATE ST,SALT LAKE CITY,UT,N
AHNZXGMI,Sonoma Nesting Company,16200 MAIN ST,GUERNEVILLE,CA,Y
IDMEATXQ,BBVA Compass,7902 W BROWN DEER RD,MILWAUKEE,WI,N
MPRBTOUX,STAR ORGANIZATION INC,2192 CAMPBELLTON RD SW,ATLANTA,GA,N
BAHMLGQS,Attorney Office,1415 MONROE AVE,ROCHESTER,NY,N
ZISHJVKL,Our Lady of Guadalupe Parish,105 S HIGHWAY 16,DE LEON,TX,N
SRABVJXC,JBS BOBCAT & EXCAVATING,1026 SODOM RD,HAMERSVILLE,OH,N
CJXMANUH,MetroPCS,304 S MOBBERLY AVE,LONGVIEW,TX,N
BESJZMVX,JONATHAN WAGNER ARCHITECT,11 RIVERFIELD DR,WESTON,CT,N
JVBWRPEQ,Hooper's Body Shop,513 SEMINARY ST,WARREN,AR,Y
SYLOHKUN,ACE REPROGRAPHICS,1903 MONTECITO AVE APT 6,MOUNTAIN VIEW,CA,N
PJFMVRUG,Terminus Design,304 E SAN FRANCISCO AVE,WILLITS,CA,N
ZTXMHWBS,Cafe Havana,1440 63RD AVE E,BRADENTON,FL,N
SCUBDXFG,H.A. Photography,1997 37TH CIR,SWEET HOME,OR,Y
ZIFUJMDL,Hitz Construction LLC,24509 SE 43RD PL,ISSAQUAH,WA,Y
DIZWQLEU,ARANDAS #7,1629 RICHEY ST,PASADENA,TX,N
IRMDTSKX,Utage,1721 W OLYMPIC BLVD,LOS ANGELES,CA,N
XSYPTBZQ,COTTONS CUDDLE BLANKETS,3875 PRO RD NE,SOLON,IA,Y
GESOMVBI,Pottery By You & Beads Too,411 HUGHES RD,MADISON,AL,N
MZRGFYLB,Knock Out Kutz,2504 CAYER LN,COLUMBIA,TN,N
HBLWUNXO,International Brotherhood,2629 OGDEN AVE,UPPER CHICHESTER,PA,Y
NKTOUZYP,Centex Homes,2373 HANOVER RD,BROWNSBURG,IN,N
KDQAIMPV,Pita Stop,655 FAIRVIEW RD STE E,SIMPSONVILLE,SC,Y
SUTAKIGE,Acceptance Is The Key,400 S CROSS ST,CHESTERTOWN,MD,Y
JHWTFEQA,Janice Spence Real Estate,1514 MARSALIS DR,ABILENE,TX,Y
KLFJWGED,Fruit-Pak Technologies,615 W 6TH ST,VANCOUVER,WA,N
EPLCKOFX,Friel Timothy Vetnarn,9 OLD CAMPUS DR,PORTLAND,ME,N
AEMBKIQH,Smoky's Pub & Grill,701 LINCOLN AVE,MODESTO,CA,N
MGZQUERI,MARIETTA THOMPSON,121 E FORT ST,BOISE,ID,Y
GNDTBXOS,LONG LINES WIRELESS,315 W MILWAUKEE AVE,STORM LAKE,IA,N
YJIEUCTM,ALAN S BERGER AND ASSOCIATES INC.,1453 E 55TH PL,CHICAGO,IL,N
FBSHXUYE,Wireless Communication,260 CARA LN,BOONE,NC,Y
TZHQBRIE,Boomland Fireworks,1702 HIGHWAY 70 W,DE QUEEN,AR,N
MAOFNHWV,CENTURY 21,1220 E 7800 S,SANDY,UT,N
UIFKGMXN,Spa Catalina,1063 S GAYLORD ST,DENVER,CO,N
ETUKFPHM,Dos Hermanos Inc,7131 W 60TH ST,CHICAGO,IL,N
ILTSKRDQ,American Monforts,3201 ROTARY DR,CHARLOTTE,NC,N
PUFDHAJG,Neibauer Gregg DPM,1845 BANCROFT ST,MISSOULA,MT,Y
SUKGLOTE,Cosentino's Nursery,25019 PACIFIC COAST HWY,MALIBU,CA,N
SGPNFLVR,Wyandot Hall,936 W STATE ROAD 62,LEAVENWORTH,IN,N
WXVSITBL,LOUISIANA SEAFOOD MARKET INC,510 W COMPTON BLVD,COMPTON,CA,N
VJOIACUF,Rebar Services Co,680 RIDGE RD STE 4,WEBSTER,NY,Y
RXGNOLES,AAA Taxi,3015 9TH ST,EVERETT,WA,N
UVYXGNQD,WAL MART PHARMACY,2355 US HIGHWAY 1 S,ST AUGUSTINE,FL,N
FGDLVHOC,AFFINITY FUNDING GROUP,303 1ST AVE NE STE 105,FARIBAULT,MN,N
UJOGXYDN,Erie Art Museum,411 STATE ST,ERIE,PA,N
HUEATYDZ,Benson Electric Co,416 SECLUDED POST CIR,GLEN BURNIE,MD,N
BAYMWRLO,G E Healthcare-Diana Phan,750 11TH AVE,SAN DIEGO,CA,N
CIOEBSPZ,Just frito...,1050 HORNBLEND ST,SAN DIEGO,CA,N
CJEQPUVL,Optical Experts Mfg,8500 S TRYON ST,CHARLOTTE,NC,N
XTNZMUCQ,Big Brand Tire,22 N PLANO ST,PORTERVILLE,CA,Y
VSCTGLWD,Louis'paint & Body Shop,27 SPRUCE DR,ANTONITO,CO,N
ZVUXSKAL,Ronald Blocker Educational Leadership Center,301 W AMELIA ST,ORLANDO,FL,N
SXEZFCRI,HARRIS JOHN M DGN MD 0,112 CLUBHOUSE DR,NICHOLASVILLE,KY,Y
XQTGWMUL,Paddock Lake Sporting Goods,23522 75TH ST,SALEM,WI,N
GVCHZWKM,Hep Cimarron,4539 N INTERSTATE 35,GAINESVILLE,TX,Y
AZCPURFL,V Spa,4841 TUMWATER VALLEY DR SE,TUMWATER,WA,N
EPHFBMQX,A & A Roll Shutter,4201 E OAK KNOLL ST,SPRINGFIELD,MO,N
WLDFCVGI,Flower Depot,3716 BIG BEND INDUSTRIAL CT,SAINT LOUIS,MO,N
FSBQUNVP,industry packing & seal inc,641 ORCHID LN,LINCOLN,CA,N
NMJVUAKC,Kathleen's Beauty Salon,207 N STATE,JONES,OK,N
YEAWKTLR,Pure Natural Massage Therapy by Maria Gambino L.M.T.,358 CARMEN RD,AMHERST,NY,N
HLBGADSW,Thomas Thomas Taxes,3205 KIRBY WHITTEN RD,BARTLETT,TN,Y
KNMXFIWV,MOLITOR CONSTRUCTION,2056 TECHNY RD,NORTHBROOK,IL,N
RGCPFHQN,Picou Iii Harry J,218 ENTERPRISE DR,HOUMA,LA,N
PHJVTSLW,affordable contractor resources,10309 ALEXANDRIA ST,VENTURA,CA,N
GNODRBWL,Decco Interpreting,1115 I ST,MODESTO,CA,N
TINMAFLR,Sodexo,2092 PARKER DAIRY RD,ALVORD,TX,Y
RBVTNFSE,TWO RIVERS VETERINARY HOSPITAL,2339 ROOSEVELT AVE,TWO RIVERS,WI,Y
SUPDFCVL,ONX SOLUTIONS,5429 NW 33RD PL,GAINESVILLE,FL,N
JKHXYFNC,SPENCER BART M.D.,200 MLK JR BLVD,WICHITA FALLS,TX,N
PJCOWAGL,A MARTINEZ CONSTRUCTION INC,5940 COPPER LEAF LN,NAPLES,FL,N
UDQHJWAT,Sea Cliff Motel,1895 PATRICKS POINT DR,TRINIDAD,CA,Y
QCGTDHOU,MJK AUTO SALES,1610 UTICA AVE,BROOKLYN,NY,Y
FUQGMETL,LEE JIN M. DDS,7917 MCPHERSON RD STE 202,LAREDO,TX,Y
TFWQBDPJ,ladybug printing,10351 GRANT ST UNIT 7,THORNTON,CO,N
PBVCWAIG,Santiago's New Mexican Grill,1911 EUBANK BLVD NE,ALBUQUERQUE,NM,N
PJVSAWKU,Big White Dog Inc,522 HERDS CREEK RD,MONTICELLO,GA,N
ZJGOVQHW,Haizlip Firm,2125 CENTRAL AVE,MEMPHIS,TN,N
OVLGNKWE,KERRI L BRINGSLID ATTORNEY AT LAW,1882 VICTORY BLVD,STATEN ISLAND,NY,N
TYDUVGEA,Wu Inc,6677 WASHINGTON AVE,SAINT LOUIS,MO,Y
ADOLJPKC,C. ROBERTS INC.,3725A GIBBON RD,CHARLOTTE,NC,Y
QIUBRKOC,VILLAGE MEDICAL CENTER,6201 MATLOCK RD STE 139,ARLINGTON,TX,N
YWNJGBSM,Wj Welding & Machine Llc,255 YANCEY DR,GADSDEN,AL,N
HEDYBIPZ,Custom Label Bottling,928 N ACCESS RD,CLYDE,TX,N
KSEOIWVA,Baskets & Beyond,7045 ANDERSONVILLE RD,CLARKSTON,MI,Y
KOHDAGJS,JOHN JOYCE ARCHITECTS,2101 W EVERGREEN AVE,CHICAGO,IL,Y
JOPLWBXK,Rustique Studios,1701 1ST AVE S,SEATTLE,WA,N
CUETGYJA,METAL GROW,1175 LAWNDALE RD,KENWOOD,CA,Y
APQZUESR,Zufall Health Center,85 WASHINGTON ST,MORRISTOWN,NJ,N
ZDAGFCRK,IwrightDesign.com,7178 COLCHESTER LN,YPSILANTI,MI,Y
GYONSRDF,Magic Fingers Beauty Salon,640C E TRI COUNTY BLVD,OLIVER SPRINGS,TN,N
GPWNIFTB,KEN FELTY INCORPORATED,954 29TH ST,ASHLAND,KY,Y
TXGNWIMV,County of Mohave,1770 AIRWAY AVE,KINGMAN,AZ,Y
NBAOESUZ,HAWAII MAOLI,91-1270 KINOIKI ST,KAPOLEI,HI,N
IBPYHGJK,CATALINA ASSOCIATES,709 CLOYDEN SQ,PALOS VERDES ESTATES,CA,Y
RZANCYES,CAP WORLD,3763 S ORLANDO DR,SANFORD,FL,N
AIWDGXKC,LAPTOP DONE DEALS,1489 W WARM SPRINGS RD,HENDERSON,NV,N
EQJADUSN,Gaslamp Computer's,311 4TH ST,SAN DIEGO,CA,Y
BLIZVOGF,KAM PROVISION,49 ALEXANDER RD,BRAINTREE,MA,Y
WFHULDSZ,C. W. SMITH DECORATING CO. LLC,2104 MOUNT MEIGS RD,MONTGOMERY,AL,N
SAQCELIF,White Lotus Society,11 GOODMAN ST S,ROCHESTER,NY,N
HZJEVXNM,VICTORY HOUSE,237 S 12TH ST,RICHMOND,IN,N
DRNMGEBI,MASTER TECH AUTOMOTIVE,1005 LESLIE AVE,CATONSVILLE,MD,Y
GVSJRPET,Berkshire Dairy & Food Products,43 CREEK RD,DILLSBURG,PA,N
CGJLKBIW,Penn Machine Co,206 PINE ST,CARNEGIE,PA,N
MZVRXYSC,The Red Tent Rising,1103 ABBOT KINNEY BLVD,VENICE,CA,N
YAGMLONE,Divorce Source,363 7TH AVE,NEW YORK,NY,Y
RDUPOFNC,IMPRESSIONS DIRECT INC.,2116 59TH ST,SAINT LOUIS,MO,N
BCZEHXAQ,CATALDO'S RAINIER APPLIANCE,212 E B ST,RAINIER,OR,N
MBWCRINV,st pierres enterprises,18 METHODIST RD,WESTBROOK,ME,N
CSAVHQGZ,Oaxaca Trucking,3720 GUN CLUB RD SW,ALBUQUERQUE,NM,N
TKCOBLVY,Total Dimension,2388 COMMERCIAL WAY,SPRING HILL,FL,N
MRLYASEK,NBA CENTENNIAL PALAZA APARTMENTS,4115 MCPHERSON AVE,SAINT LOUIS,MO,N
MJZARUBC,L A NAIL SALON,2668 S 31ST ST,TEMPLE,TX,Y
KSRBAZGM,Hattiesburg Transportation Taxi,314 N 40TH AVE,HATTIESBURG,MS,Y
AXUCKIRE,FRED C MASON INC,92 E MAIN ST,WEBSTER,NY,N
TFONJMAP,Duane Reade,852 2ND AVE,NEW YORK,NY,Y
AKWMHELZ,OCEAN RIDERS ENGINEERING INC.,112 SAINT CROIX AVE,COCOA BEACH,FL,N
BDAUSPNI,AMISH FURNITURE SHOWCASE,3411 PRESTON RD STE 9,FRISCO,TX,N
WZJCVYLQ,Physicians Computer Company,20 WINOOSKI FALLS WAY,WINOOSKI,VT,Y
YRFKLQIT,GOLDEN RULE CONSTRUCTION,1704 COUNTY ROAD 603,JACKSON,MO,Y
FJVKZHQO,Northeast Missouri Orthodontics Dba Lisa M Ru,655 CLINIC RD STE 110,HANNIBAL,MO,N
CJXATIOQ,Blueberry Hill Airport-5al4,545 HOOPER CHERRY RD,DOTHAN,AL,N
UCPBHRAQ,Great American Pub,4145 S GRAND CANYON DR,LAS VEGAS,NV,Y
WYQGUIZP,j co karaoke,1012 E 53RD ST,ANDERSON,IN,N
QTDNWIPB,Wellspring,302 PATRICK AVE,URBANA,OH,N
TCVLGFMO,Automated Packaging,448 JACKSON LAKE INN RD,JACKSON,GA,Y
OPDYWTXF,KAIRYS PROPERTIES SPE I INC,431 W FRANKLIN ST,CHAPEL HILL,NC,N
PZVRXNCB,Chic By: Jose O.,594 DWIGHT ST,HOLYOKE,MA,N
HBJFWKRE,Chef Huang's Chinese Take-Out,2717 CHIMNEY ROCK RD,HOUSTON,TX,N
JREDZHCO,Wells Fargo Bank,128 W 3RD ST,DAVENPORT,IA,N
NDMKXBPG,Vidad & Associates,3828 NORTHSTAR DR,LAKE HAVASU CITY,AZ,N
FOEZUXDL,Encore Resale of High-End Designers,1375 BURLINGAME AVE,BURLINGAME,CA,Y
RVSYFJLM,Design Works,2418 ACORN WAY,MEDFORD,OR,N
FBRTIGYV,Flatiron Conoco,44 W FLATIRON CROSSING DR,BROOMFIELD,CO,N
RBCUYQFS,Marshall A Fein Law Office,6660 FIRST PARK TEN BLVD,SAN ANTONIO,TX,Y
PVQHFRSG,THE ROOM SERVICE,5710 GREENSBORO DR,FRISCO,TX,N
JYHDRESA,Beall Tire,356 PEACHTREE ST NE,PELHAM,GA,N
PRWSEHLA,OdellPhotos,216 OLD LINE DR,CENTREVILLE,MD,N
SKTVBQNZ,Lowe's Home Improvement,24065 HIGHWAY 80 E,STATESBORO,GA,N
OVZYUCJL,Slater's Diner,226 DURYEA ST,RAYMOND,WA,Y
JAYIULGK,Randall Payne Painting Services,8012 EARL AVE NW,SEATTLE,WA,Y
CMTGJDQR,Thin-Lite Corp,530 CONSTITUTION AVE,CAMARILLO,CA,N
LEPVFJID,flora boutique,1324 STATE ST,SANTA BARBARA,CA,Y
DILZUWEA,Dragonfly's Dance,5274 ROSEMONT DR,MADISONVILLE,KY,N
JKIHCSAV,MILLINGTON AWARDS & TROPHIES,7793 COMMODORE RD,MILLINGTON,TN,Y
DZKYIHWX,Stephens Floor Covering Co,11693 MANCHESTER RD,SAINT LOUIS,MO,N
BQRAXYCN,DOLLAR GENERAL,2714 W OLD US HIGHWAY 441,MOUNT DORA,FL,N
HCLDJBOV,Singapore Cargo,710 MCDONNELL RD,SAN FRANCISCO,CA,N
KLADIJHQ,Missu Corner Grill,6901 SECURITY BLVD,WINDSOR MILL,MD,N
NKCHMDGI,REEL WORLD ACTING STUDIO,516 ROSEWOOD DR,METAIRIE,LA,N
CPJAEQXH,Lepore's House Of Hate,10 MONMOUTH DR,RIVERSIDE,RI,N
MOSGZKCD,Health Care Professionals Of Michigan Inc,4727 SAINT ANTOINE ST,DETROIT,MI,N
JCMSBYDL,Rexel Consolidated,7081 GRAND NATIONAL DR,ORLANDO,FL,Y
YMIFSPDH,It's More Than Skin Deep,701 LOTT ST,YOAKUM,TX,N
GWMITZUL,Old-Man River Bait & Tackle,5405 GODFREY RD,GODFREY,IL,Y
DSWMTNGE,Fly Girls Clothing,86 PASSAIC ST,PASSAIC,NJ,N
IRXEMLKD,United States Government,22 PASCO KAHLOTUS RD,PASCO,WA,N
FORBAILT,RIVERLAWN ELEM. PULASKI,8100 BETH NELSON DR,FAIRLAWN,VA,N
GFOEVRIT,All American Deli,15830 96TH ST,HOWARD BEACH,NY,N
JYOZFREA,Birch Creek Farms,9133 COUNTY ROUTE 79,HENDERSON,NY,N
JKPDYXGA,Jo-Ann Fabric and Craft Store,1928 NE 42ND AVE,PORTLAND,OR,N
GANOEXSR,Pacific Auto Glass,601 MORRO BAY BLVD,MORRO BAY,CA,N
NRDXGEVO,Dr. Michael J. Walt DO,181 INTERSTATE PKWY,BRADFORD,PA,N
UZDEYRJA,MICRONIZED ULTRA TECH,1063 HENSLEY ST,RICHMOND,CA,N
CFHEUIGS,UNION CONGREGATIONAL United Church Of Christ,3700 ALABAMA AVE S,MINNEAPOLIS,MN,N
HJUNSWDY,A American Home Security System,332 S HIGHLAND AVE,JACKSON,TN,N
UQNIGSKA,Sunguard Pool Supply,26072 MERIT CIR,LAGUNA HILLS,CA,N
WMDXROZY,Roto-Rooter Plumbing & Drain Services,901 S BRIDGE ST,DEWITT,MI,N
XENIFKWT,Academy Custom Builders,6156 LOCKE AVE,FORT WORTH,TX,Y
SFCIQLGO,Pancal Portfolio Llc,5350 ONTARIO MILLS PKWY,ONTARIO,CA,Y
PSINTUKG,ARTSAKE FRAMING GALLERY,155 MAIN ST,DAMARISCOTTA,ME,N
VOSUDTIA,Tidewater Atlantic Research,5290 RIVER RD,WASHINGTON,NC,Y
QHXWSATO,Turf Irrigation Solutions Inc,48 LOGANBERRY DR,ABINGTON,MA,Y
YLAIUXOE,WESTFIELD TRUCKING,770 W HAPPY LN,PAHRUMP,NV,N
CIQJTVEZ,On Sight Activation,13241 HARMON RD,FORT WORTH,TX,Y
YMSODRBI,DELI & DECANTER,2074 W FALCON POINT CT,BOISE,ID,Y
UGZQBPIR,HARRY QUINT FLORIST,1189 CENTRE ST,NEWTON,MA,Y
MONCTBVA,Zero Sullivan Arts,4136A SULLIVAN ST,MADISON,AL,N
ZBRTDGHI,Dr. Andres H. Torop MD,1554 RIVER BIRCH RUN N,CHESAPEAKE,VA,N
GJTEKWAQ,SonRise Peach Farm,11172 HIGHWAY 177,STRATFORD,OK,N
YNPGQJAR,Imobile Of Ohio,75 N MAYSVILLE AVE,ZANESVILLE,OH,N
JMWORZNP,David C. Seegmiller DPM,8822 S REDWOOD RD,WEST JORDAN,UT,N
JGTWNZYF,NEWARM,711 PEND OREILLE LOOP,COLVILLE,WA,N
TVNBOUYH,Belleview Shopping Center,10466 AIRLINE HWY,BATON ROUGE,LA,N
OIFMHWSK,Echalee Mexican Grill Inc,666 W TENNESSEE ST,TALLAHASSEE,FL,Y
GENRYMOQ,Avenue M,1 AVENUE M,BROOKLYN,NY,N
TPKAMEYC,DUN & BRADSTREET INC.,2057 E AURORA RD,TWINSBURG,OH,N
ZFRTSENW,Pepe's Auto Service,4240 RAILROAD AVE,EAST CHICAGO,IN,N
BIFGNDRU,LKR Group,1003 INDUSTRY WAY,EL CENTRO,CA,N
ZPCDUIOJ,U-HAUL NEIGHBORHOOD DEALER,7643 UNIVERSITY AVE,LA MESA,CA,N
XAEZDIVJ,UTILIQUEST LLC,11781 LEE JACKSON HWY STE 160,FAIRFAX,VA,N
NWUOMBZL,Pomann Sound,2 W 46TH ST,NEW YORK,NY,N
IDUXZWHT,Elizabeth J Schutt,222 SE LAKE DR,ESTELLINE,SD,N
QRVNGPZI,DND Carpet & Upholstery Cleaning,17308 75TH PL N,MAPLE GROVE,MN,Y
EZFDAWXC,NEW FAITH COMMUNITY BAPTIST CHURCH INC,1760 SNAPFINGER RD,DECATUR,GA,N
CILSFUYK,Autosport Executive,155 LEVY RD,ATLANTIC BEACH,FL,N
TORVSKZY,Oceans AtArthurs,27 RAHLING CIR,LITTLE ROCK,AR,N
ZBCRVPWU,Pearl of Elegance Barber & Hair Salon,3044 ANTOINE DR,HOUSTON,TX,N
LOASQNDM,Pacific Aircraft,15820 N 84TH ST,SCOTTSDALE,AZ,N
GZAVSTMX,PARACLETOS COUNSELING CTR,828 NW HILL ST,BEND,OR,N
LQYMXWAT,Sawtooth Solutions & Support Inc.,11 E SUPERIOR ST,DULUTH,MN,N
ZSHATBLF,Rme Marketing,425 PINE RIDGE DR,SAN RAMON,CA,Y
ZFYATWJM,Dr. James E. Clark DDS,18 FULLER ROAD,MERIDIAN,MS,N
AXGHYQIP,Rasa,149 MAIN ST,EAST GREENWICH,RI,Y
JUMIXHFD,Retro Tech Systems Inc,93 MARK LN,FOX LAKE,IL,N
EUKFIMHL,Kids Hanger,930 N MONTEREY ST APT 242,ALHAMBRA,CA,N
EGXWQYIR,HEALTH DEPT,2423 N STATE ST,JACKSON,MS,N
AOPQKJSB,Connor Brooks,4765 OAKLAND ST,DENVER,CO,N
MGPXOSEI,Culligan Water Conditioning,2380 CASSENS DR,FENTON,MO,N
AEIJZGDH,The Chicago Connection Pizza,5730 N 1ST ST STE 114,FRESNO,CA,N
VEGFYSZB,CENTRAL FLORIDA FOOT & ANKLE,2211 NORTH BLVD W,DAVENPORT,FL,Y
WIRJNZMK,Pallet Servicing,199 E MEADOW ST,CHICOPEE,MA,N
SEJZTUHG,PEOPLE HELPING PEOPLE KING COUNTY,15619 4TH AVE SW,BURIEN,WA,N
FWLXYBDS,BROWN & GOLD OUTLET,1802 DELL RANGE BLVD STE 6,CHEYENNE,WY,N
JBZGASRP,Double-A Design & Consulting,1205 NW 75TH CIR,VANCOUVER,WA,N
DIGMYZLC,Centro Latino DE Abogados,105 N VIRGINIA AVE,FALLS CHURCH,VA,Y
BKONLAYE,TRAIL MIX,2383 TIMBERLINE RD,CANAAN VALLEY,WV,Y
ZRDXVQOH,Quality Parts Mfg,10218 E 47TH PL,TULSA,OK,N
HGZJDCQI,Truck Company,41 EARLE AVE,LYNBROOK,NY,Y
RPLTWCYA,Fahrenheit Climate Control,35 VILLAGE DR,LANGHORNE,PA,Y
INHFTRJA,Comcast Cable,10312 W HAMPDEN AVE,LAKEWOOD,CO,Y
WOYETQVL,Hulletts Tires & Lube,10012 MANCHESTER HWY,MORRISON,TN,N
TODUGFCB,ABC Manufacturing,1811 N 25TH DR,PHOENIX,AZ,N
SMOCEVHT,Protective Fabric Solutions,3503 MORGAN RIVER DR S,LADYS ISLAND,SC,N
MXWTYNGJ,Legends Consultants,102 N 3RD ST,TIPP CITY,OH,Y
FVOCLZUT,ROSETech Solutions,12908 ROYAL GEORGE AVE,ODESSA,FL,Y
HUMIKATP,Mastercard Data Center,11530 N AMBASSADOR DR,KANSAS CITY,MO,N
DWPZKEXH,UPHOLSTERY ARE US,405 ROWE ST,DUNCAN,SC,N
HPJXMERC,CARL PALMER REALTY,2014 E WILLOW DR,OLATHE,KS,N
EJMXCIVB,Cellular World,1496 BROAD ST,PROVIDENCE,RI,N
DXAHUJTG,Honey in the Heart Drum Company,5014 LAKEMONT DR,DOUGLASVILLE,GA,N
GKJUXBDZ,Morris Discount,306 93RD ST,BROOKLYN,NY,N
DPSUQRYX,Walton Construction Services Inc,794 NANCY DARBY RD,PONCE DE LEON,FL,N
FAUBEYTC,Cheddars,12152 L ST,OMAHA,NE,Y
LKIUPXZC,Omni Mart,128 E GARRISON BLVD,GASTONIA,NC,N
QIUHNWCY,physicians choice respiratory svcs,3721 SAN JOSE PL,JACKSONVILLE,FL,N
LGQKXJRN,U.S Dance Club,38 NEW BRITAIN AVE,ROCKY HILL,CT,Y
YJCTAOSN,C Munoz Juan,2517 W MADISON AVE,MONTEBELLO,CA,N
GWBDEZTM,DANNER GARIN LMHC,10 CORNELL ST,ITHACA,NY,N
LTNCJBFA,STEEL SPECIALTIES INC,620 4H PARK RD,QUEENSTOWN,MD,N
ADZURFKT,Rapid DNA Testing in LONGVIEW,700 E MARSHALL AVE,LONGVIEW,TX,N
ICNEYROS,Centro Comunit√°rio Brasileiro,4823 N DIXIE HWY,POMPANO BEACH,FL,N
HXNKRSJI,Octane Research Inc,125 PARK AVE RM 305,NEW YORK,NY,N
OLRVWFNJ,Tadlock Theresa LCSW,200 W HIGGINS RD STE 312,SCHAUMBURG,IL,N
HGMSXDIL,Everlasting Sounds,266 E SHARON RD,CINCINNATI,OH,Y
HINAVDSF,Salad Express,518 N CAGE BLVD,PHARR,TX,N
JSZBYVRC,ELISA TAX SERVICE CORP.,242 46TH ST,UNION CITY,NJ,Y
CXDJLVSF,FAIRMAN PLUMBING INC,9216 RAVENSWOOD RD,GRANBURY,TX,N
KCVYBTIN,transportation inc,65 DAVINCI DR,BOHEMIA,NY,N
YHWPBNOL,Tickets Lounge,25 AMERICAS CUP AVE,NEWPORT,RI,Y
DPCWYNUI,Lisa Clague Workshops,441 SANDY BRANCH RD,BAKERSVILLE,NC,N
LCXEAQGZ,links:,,,,N
VKUWBDAX,www.pocosinarts.org,,,,N
TNGQEIKP,www.cdava.com,,,,Y
FXMUVHKO,LUDZACK CONSTRUCTION INC.,13485 SKYLINE CIR,SHAKOPEE,MN,Y
PAEBUXGR,LANI KAI PROPERTY SERVICES LLC,1810 W STATE ST STE 330,BOISE,ID,N
ZBUECWMP,Quitman Printing & Office CO,117 S LEE ST,QUITMAN,GA,N
SZMOPLFU,Judy A England-Joseph,2208 GLASGOW RD,ALEXANDRIA,VA,N
ZXLWGQNA,CHRISTIAN III CEPHAS N DDS,510 E KNIGHTSBRIDGE PL,LECANTO,FL,N
UBLWDHFI,Richmond Limousine & Transportation,5005 BENEFIT AVE,ASHTABULA,OH,N
FLWJUBZP,Bank of America,13250 GRANT RD,CYPRESS,TX,N
KEVDBCJR,Friends Mini Mart,6343 26TH ST,BERWYN,IL,N
KQTFDRUG,La Fiesta Mexican Grill,2420 CURRY FORD RD,ORLANDO,FL,N
JUWPEYCH,BHAT TRICIA L M.D.,2336 DAWSON RD STE 1100,ALBANY,GA,Y
ARKUVWPO,Caribbean Party Rental,13530 SW 113TH PL,MIAMI,FL,N
RFXODGNU,Bates Jim & Sheryl,2977 SUNDANCE CIR,LAS CRUCES,NM,N
ULHNPTFA,ARROW KINSLEY JOINT VENTURE,2700 WATER ST,YORK,PA,N
CGXKFRMH,Little Bit Country,610 E MAIN ST,CAMDEN,IN,N
AOGLVEYP,Waddell & Crane Llc,724 MAIN ST,NEW ENGLAND,ND,N
FWTHEQIK,SHEETZ INC.,8408 WOODSBORO PIKE,WALKERSVILLE,MD,N
NJOGEZRS,PARMATER ENTERTAINMENT,158 W NORTH BROADWAY ST,COLUMBUS,OH,N
ZDNTORIG,Swifty Oil Co,1530 MIDLAND TRL,SHELBYVILLE,KY,Y
PEAXSNJH,HUMMINGBIRD ANTIQUES BANK ST.,1105 SYCAMORE ST NW,DECATUR,AL,Y
FLSDPRXV,Frank Hurd Dr,11581 COUNTRYSIDE LN,CHISHOLM,MN,Y
GPXZWCAN,Green Gourd Antiques,610 E ST,SNYDER,OK,Y
XIZQKMUL,Cajun Cafe At The Market,1100 N PETERS ST,NEW ORLEANS,LA,N
BDUYKXVL,PEDIATRIC AND TEEN MEDICAL CENTER,1521 N 10TH ST,BLYTHEVILLE,AR,N
UZACTNJR,Hsu Connie MD,13555 W MCDOWELL RD STE 202,GOODYEAR,AZ,N
